NUSAT-49 (KLARA DAN VO*)
1 60500U 24149AJ  26068.79810190  .00012912  00000+0  43568-3 0  9991
2 60500  97.3807 150.7380 0001132 286.7761  73.3356 15.30828857 86935
STARLINK-32378          
1 61064U 24164Q   26068.33898372  .00000629  00000+0  33371-4 0  9996
2 61064  53.1611  92.7634 0001367  57.5874 302.5259 15.30186398 83427
